STARLINK-34899          
1 65323U 25189A   26065.79147016  .00037713  00000+0  12768-2 0  9994
2 65323  53.1575 220.1453 0000995  98.5728 261.5385 15.30254669 30662
STARLINK-34196          
1 65324U 25189B   26065.45120131  .00038467  00000+0  13036-2 0  9993
2 65324  53.1591 221.5971 0001080  92.2493 267.8631 15.30215328 30568
STARLINK-34911          
1 65325U 25189C   26065.81681553  .00033346  00000+0  11322-2 0  9991
2 65325  53.1635 220.3225 0000171 290.0575  70.0408 15.30221097 30663
STARLINK-34902          
1 65326U 25189D   26065.80520580  .00033360  00000+0  11327-2 0  9994
2 65326  53.1594 220.2455 0001001 193.5505 166.5469 15.30219668 30664
STARLINK-34880          
1 65327U 25189E   26065.80733001  .00046351  00000+0  15657-2 0  9993
2 65327  53.1599 220.2627 0000450 195.4843 164.6144 15.30234710 30668
STARLINK-34885          
1 65328U 25189F   26065.86418960  .00041270  00000+0  13973-2 0  9998
2 65328  53.1577 219.9092 0000517 101.2193 258.8866 15.30213139 30617
STARLINK-34908          
1 65329U 25189G   26064.81493525  .00026869  00000+0  91584-3 0  9995
2 65329  53.1576 224.7337 0000883  96.4973 263.6129 15.30206763 30510
STARLINK-34864          
1 65330U 25189H   26065.46174787  .00029180  00000+0  99270-3 0  9994
2 65330  53.1587 221.6578 0001284  86.6169 273.4978 15.30225103 30612
STARLINK-34918          
1 65331U 25189J   26066.11173544  .00039415  00000+0  13355-2 0  9999
2 65331  53.1578 218.6006 0001834  82.8847 277.2362 15.30209012 30651
STARLINK-33890          
1 65332U 25189K   26066.11278317  .00028627  00000+0  97427-3 0  9990
2 65332  53.1587 218.6026 0000171 328.1157  31.9833 15.30221932 29513
STARLINK-34602          
1 65333U 25189L   26065.84203140  .00059297  00000+0  19970-2 0  9995
2 65333  53.1586 219.7609 0000794  73.3971 286.7116 15.30221268 30671
STARLINK-34878          
1 65334U 25189M   26065.45436578  .00053999  00000+0  18202-2 0  9996
2 65334  53.1578 221.6166 0000970  97.9104 262.2007 15.30234111 30612
STARLINK-34874          
1 65335U 25189N   26065.43126103  .00030744  00000+0  10453-2 0  9998
2 65335  53.1599 222.1720 0001963  92.0380 268.0846 15.30217825 30600
STARLINK-34835          
1 65336U 25189P   26065.82631791  .00054690  00000+0  18442-2 0  9998
2 65336  53.1610 220.3791 0000847  78.6886 281.4210 15.30216550 30668
STARLINK-34854          
1 65337U 25189Q   26065.45647532  .00036383  00000+0  12339-2 0  9996
2 65337  53.1584 221.6260 0000560  78.1141 281.9923 15.30216591 30554
STARLINK-34751          
1 65338U 25189R   26064.80966181  .00028910  00000+0  98420-3 0  9992
2 65338  53.1569 224.6986 0000952  89.1822 270.9288 15.30207031 30516
