[{"OBJECT_NAME":"STARLINK-34899","OBJECT_ID":"2025-189A","EPOCH":"2026-03-06T18:59:43.021824","MEAN_MOTION":15.30254669,"ECCENTRICITY":9.95e-5,"INCLINATION":53.1575,"RA_OF_ASC_NODE":220.1453,"ARG_OF_PERICENTER":98.5728,"MEAN_ANOMALY":261.5385,"EPHEMERIS_TYPE":0,"CLASSIFICATION_TYPE":"U","NORAD_CAT_ID":65323,"ELEMENT_SET_NO":999,"REV_AT_EPOCH":3066,"BSTAR":0.0012768,"MEAN_MOTION_DOT":0.00037713,"MEAN_MOTION_DDOT":0},{"OBJECT_NAME":"STARLINK-34196","OBJECT_ID":"2025-189B","EPOCH":"2026-03-06T10:49:43.793184","MEAN_MOTION":15.30215328,"ECCENTRICITY":0.00010801,"INCLINATION":53.1591,"RA_OF_ASC_NODE":221.5971,"ARG_OF_PERICENTER":92.2493,"MEAN_ANOMALY":267.8631,"EPHEMERIS_TYPE":0,"CLASSIFICATION_TYPE":"U","NORAD_CAT_ID":65324,"ELEMENT_SET_NO":999,"REV_AT_EPOCH":3056,"BSTAR":0.0013035621,"MEAN_MOTION_DOT":0.00038467,"MEAN_MOTION_DDOT":0},{"OBJECT_NAME":"STARLINK-34911","OBJECT_ID":"2025-189C","EPOCH":"2026-03-06T19:36:12.861792","MEAN_MOTION":15.30221097,"ECCENTRICITY":1.71e-5,"INCLINATION":53.1635,"RA_OF_ASC_NODE":220.3225,"ARG_OF_PERICENTER":290.0575,"MEAN_ANOMALY":70.0408,"EPHEMERIS_TYPE":0,"CLASSIFICATION_TYPE":"U","NORAD_CAT_ID":65325,"ELEMENT_SET_NO":999,"REV_AT_EPOCH":3066,"BSTAR":0.0011322,"MEAN_MOTION_DOT":0.00033346,"MEAN_MOTION_DDOT":0},{"OBJECT_NAME":"STARLINK-34902","OBJECT_ID":"2025-189D","EPOCH":"2026-03-06T19:19:29.781120","MEAN_MOTION":15.30219668,"ECCENTRICITY":0.0001001,"INCLINATION":53.1594,"RA_OF_ASC_NODE":220.2455,"ARG_OF_PERICENTER":193.5505,"MEAN_ANOMALY":166.5469,"EPHEMERIS_TYPE":0,"CLASSIFICATION_TYPE":"U","NORAD_CAT_ID":65326,"ELEMENT_SET_NO":999,"REV_AT_EPOCH":3066,"BSTAR":0.0011327,"MEAN_MOTION_DOT":0.0003336,"MEAN_MOTION_DDOT":0},{"OBJECT_NAME":"STARLINK-34880","OBJECT_ID":"2025-189E","EPOCH":"2026-03-06T19:22:33.312864","MEAN_MOTION":15.3023471,"ECCENTRICITY":4.5e-5,"INCLINATION":53.1599,"RA_OF_ASC_NODE":220.2627,"ARG_OF_PERICENTER":195.4843,"MEAN_ANOMALY":164.6144,"EPHEMERIS_TYPE":0,"CLASSIFICATION_TYPE":"U","NORAD_CAT_ID":65327,"ELEMENT_SET_NO":999,"REV_AT_EPOCH":3066,"BSTAR":0.0015657,"MEAN_MOTION_DOT":0.00046351,"MEAN_MOTION_DDOT":0},{"OBJECT_NAME":"STARLINK-34885","OBJECT_ID":"2025-189F","EPOCH":"2026-03-06T20:44:25.981440","MEAN_MOTION":15.30213139,"ECCENTRICITY":5.17e-5,"INCLINATION":53.1577,"RA_OF_ASC_NODE":219.9092,"ARG_OF_PERICENTER":101.2193,"MEAN_ANOMALY":258.8866,"EPHEMERIS_TYPE":0,"CLASSIFICATION_TYPE":"U","NORAD_CAT_ID":65328,"ELEMENT_SET_NO":999,"REV_AT_EPOCH":3061,"BSTAR":0.0013973,"MEAN_MOTION_DOT":0.0004127,"MEAN_MOTION_DDOT":0},{"OBJECT_NAME":"STARLINK-34908","OBJECT_ID":"2025-189G","EPOCH":"2026-03-05T19:33:30.405600","MEAN_MOTION":15.30206763,"ECCENTRICITY":8.839e-5,"INCLINATION":53.1576,"RA_OF_ASC_NODE":224.7337,"ARG_OF_PERICENTER":96.4973,"MEAN_ANOMALY":263.6129,"EPHEMERIS_TYPE":0,"CLASSIFICATION_TYPE":"U","NORAD_CAT_ID":65329,"ELEMENT_SET_NO":999,"REV_AT_EPOCH":3051,"BSTAR":0.0009158417,"MEAN_MOTION_DOT":0.00026869,"MEAN_MOTION_DDOT":0},{"OBJECT_NAME":"STARLINK-34864","OBJECT_ID":"2025-189H","EPOCH":"2026-03-06T11:04:55.015968","MEAN_MOTION":15.30225103,"ECCENTRICITY":0.00012841,"INCLINATION":53.1587,"RA_OF_ASC_NODE":221.6578,"ARG_OF_PERICENTER":86.6169,"MEAN_ANOMALY":273.4978,"EPHEMERIS_TYPE":0,"CLASSIFICATION_TYPE":"U","NORAD_CAT_ID":65330,"ELEMENT_SET_NO":999,"REV_AT_EPOCH":3061,"BSTAR":0.00099270496,"MEAN_MOTION_DOT":0.0002918,"MEAN_MOTION_DDOT":0},{"OBJECT_NAME":"STARLINK-34918","OBJECT_ID":"2025-189J","EPOCH":"2026-03-07T02:40:53.942016","MEAN_MOTION":15.30209012,"ECCENTRICITY":0.0001834,"INCLINATION":53.1578,"RA_OF_ASC_NODE":218.6006,"ARG_OF_PERICENTER":82.8847,"MEAN_ANOMALY":277.2362,"EPHEMERIS_TYPE":0,"CLASSIFICATION_TYPE":"U","NORAD_CAT_ID":65331,"ELEMENT_SET_NO":999,"REV_AT_EPOCH":3065,"BSTAR":0.0013355,"MEAN_MOTION_DOT":0.00039415,"MEAN_MOTION_DDOT":0},{"OBJECT_NAME":"STARLINK-33890","OBJECT_ID":"2025-189K","EPOCH":"2026-03-07T02:42:24.465888","MEAN_MOTION":15.30221932,"ECCENTRICITY":1.71e-5,"INCLINATION":53.1587,"RA_OF_ASC_NODE":218.6026,"ARG_OF_PERICENTER":328.1157,"MEAN_ANOMALY":31.9833,"EPHEMERIS_TYPE":0,"CLASSIFICATION_TYPE":"U","NORAD_CAT_ID":65332,"ELEMENT_SET_NO":999,"REV_AT_EPOCH":2951,"BSTAR":0.00097427,"MEAN_MOTION_DOT":0.00028627,"MEAN_MOTION_DDOT":0},{"OBJECT_NAME":"STARLINK-34602","OBJECT_ID":"2025-189L","EPOCH":"2026-03-06T20:12:31.512960","MEAN_MOTION":15.30221268,"ECCENTRICITY":7.94e-5,"INCLINATION":53.1586,"RA_OF_ASC_NODE":219.7609,"ARG_OF_PERICENTER":73.3971,"MEAN_ANOMALY":286.7116,"EPHEMERIS_TYPE":0,"CLASSIFICATION_TYPE":"U","NORAD_CAT_ID":65333,"ELEMENT_SET_NO":999,"REV_AT_EPOCH":3067,"BSTAR":0.001997,"MEAN_MOTION_DOT":0.00059297,"MEAN_MOTION_DDOT":0},{"OBJECT_NAME":"STARLINK-34878","OBJECT_ID":"2025-189M","EPOCH":"2026-03-06T10:54:17.203392","MEAN_MOTION":15.30234111,"ECCENTRICITY":9.708e-5,"INCLINATION":53.1578,"RA_OF_ASC_NODE":221.6166,"ARG_OF_PERICENTER":97.9104,"MEAN_ANOMALY":262.2007,"EPHEMERIS_TYPE":0,"CLASSIFICATION_TYPE":"U","NORAD_CAT_ID":65334,"ELEMENT_SET_NO":999,"REV_AT_EPOCH":3061,"BSTAR":0.001820195,"MEAN_MOTION_DOT":0.00053999,"MEAN_MOTION_DDOT":0},{"OBJECT_NAME":"STARLINK-34874","OBJECT_ID":"2025-189N","EPOCH":"2026-03-06T10:21:00.952992","MEAN_MOTION":15.30217825,"ECCENTRICITY":0.00019638,"INCLINATION":53.1599,"RA_OF_ASC_NODE":222.172,"ARG_OF_PERICENTER":92.038,"MEAN_ANOMALY":268.0846,"EPHEMERIS_TYPE":0,"CLASSIFICATION_TYPE":"U","NORAD_CAT_ID":65335,"ELEMENT_SET_NO":999,"REV_AT_EPOCH":3060,"BSTAR":0.0010452671,"MEAN_MOTION_DOT":0.00030744,"MEAN_MOTION_DDOT":0},{"OBJECT_NAME":"STARLINK-34835","OBJECT_ID":"2025-189P","EPOCH":"2026-03-06T19:49:53.867424","MEAN_MOTION":15.3021655,"ECCENTRICITY":8.47e-5,"INCLINATION":53.161,"RA_OF_ASC_NODE":220.3791,"ARG_OF_PERICENTER":78.6886,"MEAN_ANOMALY":281.421,"EPHEMERIS_TYPE":0,"CLASSIFICATION_TYPE":"U","NORAD_CAT_ID":65336,"ELEMENT_SET_NO":999,"REV_AT_EPOCH":3066,"BSTAR":0.0018442,"MEAN_MOTION_DOT":0.0005469,"MEAN_MOTION_DDOT":0},{"OBJECT_NAME":"STARLINK-34854","OBJECT_ID":"2025-189Q","EPOCH":"2026-03-06T10:57:19.467648","MEAN_MOTION":15.30216591,"ECCENTRICITY":5.601e-5,"INCLINATION":53.1584,"RA_OF_ASC_NODE":221.626,"ARG_OF_PERICENTER":78.1141,"MEAN_ANOMALY":281.9923,"EPHEMERIS_TYPE":0,"CLASSIFICATION_TYPE":"U","NORAD_CAT_ID":65337,"ELEMENT_SET_NO":999,"REV_AT_EPOCH":3055,"BSTAR":0.0012338846,"MEAN_MOTION_DOT":0.00036383,"MEAN_MOTION_DDOT":0},{"OBJECT_NAME":"STARLINK-34751","OBJECT_ID":"2025-189R","EPOCH":"2026-03-05T19:25:54.780384","MEAN_MOTION":15.30207031,"ECCENTRICITY":9.529e-5,"INCLINATION":53.1569,"RA_OF_ASC_NODE":224.6986,"ARG_OF_PERICENTER":89.1822,"MEAN_ANOMALY":270.9288,"EPHEMERIS_TYPE":0,"CLASSIFICATION_TYPE":"U","NORAD_CAT_ID":65338,"ELEMENT_SET_NO":999,"REV_AT_EPOCH":3051,"BSTAR":0.00098419841,"MEAN_MOTION_DOT":0.0002891,"MEAN_MOTION_DDOT":0}]
